ATS 1                   
1 02608U 66110A   09079.96682487 -.00000256  00000-0  10000-3 0  9432
2 02608   8.0697 311.0880 0003256 213.1014 146.8160  1.00313062 71625
ATS 3                   
1 03029U 67111A   09078.68473525 -.00000105  00000-0  10000-3 0  4507
2 03029   9.5723 318.5439 0015965  35.6150 324.4478  1.00272447151489
ORIZURU (DEBUT)         
1 20479U 90013B   09079.83900756 -.00000007  00000-0  58075-4 0  2101
2 20479  99.0657  18.5905 0540056   5.4559 355.2126 12.83683855895696
SURFSAT                 
1 23711U 95059B   09080.53726162 -.00000269  00000-0 -44215-3 0  1924
2 23711 100.3011  85.8333 0367977 318.6359  38.7424 13.12563061640934
MAQSAT H                
1 25023U 97066A   09080.16586100 -.00000176  00000-0 -34676-3 0  6255
2 25023   7.6475 262.4403 6515543  59.0430 349.0760  3.09512889128627
MAQSAT B                
1 25024U 97066B   09079.31619298 -.00000161  00000-0 -11123-3 0  6803
2 25024   7.6565 259.2808 6523638  64.4334 347.7357  3.08770080128500
TEAMSAT                 
1 25025U 97066C   09080.14969474 -.00000043  00000-0  21415-3 0  6882
2 25025   7.6851 273.4279 6520751  37.2471 353.7665  3.07914951128169
OPAL (OO-38)            
1 26063U 00004C   09080.42176304 -.00000012  00000-0  15924-4 0  4629
2 26063 100.1939 211.0087 0036968 148.0129 212.3303 14.35858429479359
FALCONSAT               
1 26064U 00004D   09080.36549601 -.00000066  00000-0 -23695-5 0  4442
2 26064 100.1929 209.0491 0038097 154.7662 205.5384 14.35412315479214
PICOSAT 1 & 2 [TETHERED]
1 26080U 00004H   09079.88593840  .00000111  00000-0  53314-4 0   365
2 26080 100.2124 232.9378 0033053 101.6113 258.8782 14.40309992478773
PICOSAT 3               
1 26091U 00004J   09080.57464984  .00000166  00000-0  66576-4 0  5674
2 26091 100.2153 244.5305 0031780  64.2581 296.1879 14.43358378478782
PICOSAT 4               
1 26092U 00004K   09080.39302396  .00000085  00000-0  45168-4 0  4159
2 26092 100.1976 227.8645 0036070  95.9444 264.5860 14.40257805478062
PICOSAT 5               
1 26093U 00004L   09079.97381158  .00000173  00000-0  66739-4 0  3036
2 26093 100.2139 250.4481 0032916  48.8245 311.5757 14.44891585479316
PICOSAT 6               
1 26094U 00004M   09079.88287227  .00000031  00000-0  28867-4 0  7520
2 26094 100.1996 225.6311 0036180 108.5504 251.9600 14.39551606477506
SNAP 1                  
1 26386U 00033C   09080.63578761  .00000054  00000-0  19415-4 0  6733
2 26386  98.3927 110.9693 0012694 104.9120 255.3479 14.65124700466341
CHAMP                   
1 26405U 00039B   09080.21508332  .00009461  00000-0  39191-4 0  8165
2 26405  87.2313 349.2379 0003321  80.8754 279.2901 15.85570848495729
PICOSAT 9               
1 26930U 01043B   09080.64239713 -.00000066  00000-0  66955-5 0  1069
2 26930  67.0005 268.7532 0007412 226.6743 133.3731 14.30040984390227
PROBA 1                 
1 26958U 01049B   09080.78986018 -.00000305  00000-0 -24052-4 0  4372
2 26958  97.6322 146.5562 0080519 298.6339  60.6794 14.89643448402811
CUTE-1 (CO-55)          
1 27844U 03031E   09080.51717845  .00000023  00000-0  31209-4 0  5380
2 27844  98.7159  90.9149 0010677  40.0025 320.1937 14.20627455296817
CANX-1                  
1 27847U 03031H   09080.51958356  .00000000  00000-0  20250-4 0  4644
2 27847  98.7086  91.8882 0009942  19.8111 340.3457 14.20954532296849
CUBESAT XI-IV (CO-57)   
1 27848U 03031J   09080.05988842  .00000002  00000-0  21354-4 0  4847
2 27848  98.7173  89.5263 0010562  43.1283 317.0728 14.20430791296718
NAXING 1                
1 28221U 04012B   09080.09169188  .00000248  00000-0  32600-4 0  1217
2 28221  97.5002 120.1602 0012422 127.0762 233.1627 14.87879992267214
ST5-A                   
1 28980U 06008A   09080.87331331  .00002793  00000-0  16596-3 0  9381
2 28980 105.6804  80.6773 2358034 316.8893  26.9365 10.60996429115720
ST5-B                   
1 28981U 06008B   09080.06126415  .00005021  17829-5  18414-3 0  9861
2 28981 105.6628  97.5555 2339101 301.1566  38.0553 10.72828856116352
ST5-C                   
1 28982U 06008C   09080.50323046  .00004297  17386-5  18579-3 0  9864
2 28982 105.6855  93.6155 2348265 306.9272  33.8384 10.68947744116163
GENESIS 1               
1 29252U 06029A   09080.85194549  .00000022  00000-0  14999-4 0  7346
2 29252  64.5091 274.3818 0042917 224.3439 135.4234 15.03342862147783
FALCONSAT-3             
1 30776U 07006E   09080.89259887  .00000327  00000-0  26784-4 0  5291
2 30776  35.4341 269.0245 0001998 274.9509  85.0979 15.03193694111952
GENESIS 2               
1 31789U 07028A   09080.12128686  .00000020  00000-0  15022-4 0  4807
2 31789  64.5078 307.6839 0058042 274.6488  84.8000 15.03002588 94896
